YUXING-3 06             
1 68199U 26052B   26092.31409544  .00006772  00000+0  41812-3 0  9997
2 68199  97.5363 168.2918 0012423 203.4956 156.5707 15.10152670  2599
2026-052C               
1 68200U 26052C   26092.31263354  .00006192  00000+0  38148-3 0  9991
2 68200  97.5361 168.2954 0012147 205.9359 154.1263 15.10270189  2583
2026-052D               
1 68201U 26052D   26092.31056657  .00009708  00000+0  59195-3 0  9999
2 68201  97.5356 168.2953 0011384 202.6418 157.4310 15.10502705  2591
2026-052E               
1 68202U 26052E   26092.31054741  .00009482  00000+0  57831-3 0  9996
2 68202  97.5362 168.2972 0011194 206.6235 153.4421 15.10501678  2597
2026-052F               
1 68203U 26052F   26092.30768167  .00009734  00000+0  58951-3 0  9994
2 68203  97.5357 168.3044 0010501 198.9242 161.1598 15.10758312  2595
2026-052G               
1 68204U 26052G   26092.30713390  .00009938  00000+0  60104-3 0  9992
2 68204  97.5364 168.2995 0010058 201.7205 158.3600 15.10804956  2595
2026-052J               
1 68206U 26052J   26092.33012116  .00094975  32769-5  13845-2 0  9992
2 68206  97.3407 167.2342 0539727 317.3526  38.6940 14.68834482  2526
STARLINK-36986          
1 68207U 26053A   26092.28160707  .00193768  00000+0  98650-3 0  9993
2 68207  97.2838 327.7233 0001364 101.3831 258.7591 15.80894489  3781
STARLINK-37009          
1 68208U 26053B   26092.28085521  .00216543  00000+0  10986-2 0  9996
2 68208  97.2840 327.7234 0001377  83.6307 276.5118 15.80912017  3781
STARLINK-36948          
1 68209U 26053C   26092.28010217  .00236447  00000+0  11970-2 0  9996
2 68209  97.2840 327.7249 0001422  74.0252 286.1173 15.80906823  3766
STARLINK-37119          
1 68210U 26053D   26092.27935216  .00238513  00000+0  12075-2 0  9995
2 68210  97.2842 327.7253 0001519  59.4882 300.6536 15.80901946  3786
STARLINK-37120          
1 68211U 26053E   26092.27860054  .00288081  00000+0  14479-2 0  9998
2 68211  97.2841 327.7264 0001438  83.7645 276.3787 15.80932719  3762
STARLINK-37117          
1 68212U 26053F   26092.15124912  .00185753  00000+0  94671-3 0  9997
2 68212  97.2844 327.5939 0001347  64.3994 295.7413 15.80891870  3767
STARLINK-37116          
1 68213U 26053G   26092.21379802  .00310762  00000+0  15575-2 0  9990
2 68213  97.2843 327.6618 0001592  64.4940 295.6493 15.80935577  3777
STARLINK-35854          
1 68214U 26053H   26092.14974571  .00226636  00000+0  11486-2 0  9990
2 68214  97.2846 327.5959 0001429  70.0395 290.1027 15.80908599  3748
