[{"OBJECT_NAME":"YUXING-3 06","OBJECT_ID":"2026-052B","EPOCH":"2026-04-02T07:32:17.846016","MEAN_MOTION":15.1015267,"ECCENTRICITY":0.00124237,"INCLINATION":97.5363,"RA_OF_ASC_NODE":168.2918,"ARG_OF_PERICENTER":203.4956,"MEAN_ANOMALY":156.5707,"EPHEMERIS_TYPE":0,"CLASSIFICATION_TYPE":"U","NORAD_CAT_ID":68199,"ELEMENT_SET_NO":999,"REV_AT_EPOCH":259,"BSTAR":0.00041811872,"MEAN_MOTION_DOT":6.772e-5,"MEAN_MOTION_DDOT":0},{"OBJECT_NAME":"2026-052C","OBJECT_ID":"2026-052C","EPOCH":"2026-04-02T07:30:11.537856","MEAN_MOTION":15.10270189,"ECCENTRICITY":0.0012147,"INCLINATION":97.5361,"RA_OF_ASC_NODE":168.2954,"ARG_OF_PERICENTER":205.9359,"MEAN_ANOMALY":154.1263,"EPHEMERIS_TYPE":0,"CLASSIFICATION_TYPE":"U","NORAD_CAT_ID":68200,"ELEMENT_SET_NO":999,"REV_AT_EPOCH":258,"BSTAR":0.00038148156,"MEAN_MOTION_DOT":6.192e-5,"MEAN_MOTION_DDOT":0},{"OBJECT_NAME":"2026-052D","OBJECT_ID":"2026-052D","EPOCH":"2026-04-02T07:27:12.951648","MEAN_MOTION":15.10502705,"ECCENTRICITY":0.00113842,"INCLINATION":97.5356,"RA_OF_ASC_NODE":168.2953,"ARG_OF_PERICENTER":202.6418,"MEAN_ANOMALY":157.431,"EPHEMERIS_TYPE":0,"CLASSIFICATION_TYPE":"U","NORAD_CAT_ID":68201,"ELEMENT_SET_NO":999,"REV_AT_EPOCH":259,"BSTAR":0.00059195479,"MEAN_MOTION_DOT":9.708e-5,"MEAN_MOTION_DDOT":0},{"OBJECT_NAME":"2026-052E","OBJECT_ID":"2026-052E","EPOCH":"2026-04-02T07:27:11.296224","MEAN_MOTION":15.10501678,"ECCENTRICITY":0.00111947,"INCLINATION":97.5362,"RA_OF_ASC_NODE":168.2972,"ARG_OF_PERICENTER":206.6235,"MEAN_ANOMALY":153.4421,"EPHEMERIS_TYPE":0,"CLASSIFICATION_TYPE":"U","NORAD_CAT_ID":68202,"ELEMENT_SET_NO":999,"REV_AT_EPOCH":259,"BSTAR":0.00057831214,"MEAN_MOTION_DOT":9.482e-5,"MEAN_MOTION_DDOT":0},{"OBJECT_NAME":"2026-052F","OBJECT_ID":"2026-052F","EPOCH":"2026-04-02T07:23:03.696288","MEAN_MOTION":15.10758312,"ECCENTRICITY":0.0010501,"INCLINATION":97.5357,"RA_OF_ASC_NODE":168.3044,"ARG_OF_PERICENTER":198.9242,"MEAN_ANOMALY":161.1598,"EPHEMERIS_TYPE":0,"CLASSIFICATION_TYPE":"U","NORAD_CAT_ID":68203,"ELEMENT_SET_NO":999,"REV_AT_EPOCH":259,"BSTAR":0.00058951492,"MEAN_MOTION_DOT":9.734e-5,"MEAN_MOTION_DDOT":0},{"OBJECT_NAME":"2026-052G","OBJECT_ID":"2026-052G","EPOCH":"2026-04-02T07:22:16.368960","MEAN_MOTION":15.10804956,"ECCENTRICITY":0.0010058,"INCLINATION":97.5364,"RA_OF_ASC_NODE":168.2995,"ARG_OF_PERICENTER":201.7205,"MEAN_ANOMALY":158.36,"EPHEMERIS_TYPE":0,"CLASSIFICATION_TYPE":"U","NORAD_CAT_ID":68204,"ELEMENT_SET_NO":999,"REV_AT_EPOCH":259,"BSTAR":0.00060104433,"MEAN_MOTION_DOT":9.938e-5,"MEAN_MOTION_DDOT":0},{"OBJECT_NAME":"2026-052J","OBJECT_ID":"2026-052J","EPOCH":"2026-04-02T07:55:22.468224","MEAN_MOTION":14.68834482,"ECCENTRICITY":0.05397277,"INCLINATION":97.3407,"RA_OF_ASC_NODE":167.2342,"ARG_OF_PERICENTER":317.3526,"MEAN_ANOMALY":38.694,"EPHEMERIS_TYPE":0,"CLASSIFICATION_TYPE":"U","NORAD_CAT_ID":68206,"ELEMENT_SET_NO":999,"REV_AT_EPOCH":252,"BSTAR":0.0013844799,"MEAN_MOTION_DOT":0.00094975,"MEAN_MOTION_DDOT":3.276879e-6},{"OBJECT_NAME":"STARLINK-36986","OBJECT_ID":"2026-053A","EPOCH":"2026-04-02T06:45:30.850848","MEAN_MOTION":15.80894489,"ECCENTRICITY":0.00013645,"INCLINATION":97.2838,"RA_OF_ASC_NODE":327.7233,"ARG_OF_PERICENTER":101.3831,"MEAN_ANOMALY":258.7591,"EPHEMERIS_TYPE":0,"CLASSIFICATION_TYPE":"U","NORAD_CAT_ID":68207,"ELEMENT_SET_NO":999,"REV_AT_EPOCH":378,"BSTAR":0.00098649745,"MEAN_MOTION_DOT":0.00193768,"MEAN_MOTION_DDOT":0},{"OBJECT_NAME":"STARLINK-37009","OBJECT_ID":"2026-053B","EPOCH":"2026-04-02T06:44:25.890144","MEAN_MOTION":15.80912017,"ECCENTRICITY":0.00013778,"INCLINATION":97.284,"RA_OF_ASC_NODE":327.7234,"ARG_OF_PERICENTER":83.6307,"MEAN_ANOMALY":276.5118,"EPHEMERIS_TYPE":0,"CLASSIFICATION_TYPE":"U","NORAD_CAT_ID":68208,"ELEMENT_SET_NO":999,"REV_AT_EPOCH":378,"BSTAR":0.0010985915,"MEAN_MOTION_DOT":0.00216543,"MEAN_MOTION_DDOT":0},{"OBJECT_NAME":"STARLINK-36948","OBJECT_ID":"2026-053C","EPOCH":"2026-04-02T06:43:20.827488","MEAN_MOTION":15.80906823,"ECCENTRICITY":0.00014229,"INCLINATION":97.284,"RA_OF_ASC_NODE":327.7249,"ARG_OF_PERICENTER":74.0252,"MEAN_ANOMALY":286.1173,"EPHEMERIS_TYPE":0,"CLASSIFICATION_TYPE":"U","NORAD_CAT_ID":68209,"ELEMENT_SET_NO":999,"REV_AT_EPOCH":376,"BSTAR":0.0011970294,"MEAN_MOTION_DOT":0.00236447,"MEAN_MOTION_DDOT":0},{"OBJECT_NAME":"STARLINK-37119","OBJECT_ID":"2026-053D","EPOCH":"2026-04-02T06:42:16.026624","MEAN_MOTION":15.80901946,"ECCENTRICITY":0.00015192,"INCLINATION":97.2842,"RA_OF_ASC_NODE":327.7253,"ARG_OF_PERICENTER":59.4882,"MEAN_ANOMALY":300.6536,"EPHEMERIS_TYPE":0,"CLASSIFICATION_TYPE":"U","NORAD_CAT_ID":68210,"ELEMENT_SET_NO":999,"REV_AT_EPOCH":378,"BSTAR":0.0012074576,"MEAN_MOTION_DOT":0.00238513,"MEAN_MOTION_DDOT":0},{"OBJECT_NAME":"STARLINK-37120","OBJECT_ID":"2026-053E","EPOCH":"2026-04-02T06:41:11.086656","MEAN_MOTION":15.80932719,"ECCENTRICITY":0.00014382,"INCLINATION":97.2841,"RA_OF_ASC_NODE":327.7264,"ARG_OF_PERICENTER":83.7645,"MEAN_ANOMALY":276.3787,"EPHEMERIS_TYPE":0,"CLASSIFICATION_TYPE":"U","NORAD_CAT_ID":68211,"ELEMENT_SET_NO":999,"REV_AT_EPOCH":376,"BSTAR":0.0014478731,"MEAN_MOTION_DOT":0.00288081,"MEAN_MOTION_DDOT":0},{"OBJECT_NAME":"STARLINK-37117","OBJECT_ID":"2026-053F","EPOCH":"2026-04-02T03:37:47.923968","MEAN_MOTION":15.8089187,"ECCENTRICITY":0.0001347,"INCLINATION":97.2844,"RA_OF_ASC_NODE":327.5939,"ARG_OF_PERICENTER":64.3994,"MEAN_ANOMALY":295.7413,"EPHEMERIS_TYPE":0,"CLASSIFICATION_TYPE":"U","NORAD_CAT_ID":68212,"ELEMENT_SET_NO":999,"REV_AT_EPOCH":376,"BSTAR":0.00094671252,"MEAN_MOTION_DOT":0.00185753,"MEAN_MOTION_DDOT":0},{"OBJECT_NAME":"STARLINK-37116","OBJECT_ID":"2026-053G","EPOCH":"2026-04-02T05:07:52.148928","MEAN_MOTION":15.80935577,"ECCENTRICITY":0.00015929,"INCLINATION":97.2843,"RA_OF_ASC_NODE":327.6618,"ARG_OF_PERICENTER":64.494,"MEAN_ANOMALY":295.6493,"EPHEMERIS_TYPE":0,"CLASSIFICATION_TYPE":"U","NORAD_CAT_ID":68213,"ELEMENT_SET_NO":999,"REV_AT_EPOCH":377,"BSTAR":0.0015575098,"MEAN_MOTION_DOT":0.00310762,"MEAN_MOTION_DDOT":0},{"OBJECT_NAME":"STARLINK-35854","OBJECT_ID":"2026-053H","EPOCH":"2026-04-02T03:35:38.029344","MEAN_MOTION":15.80908599,"ECCENTRICITY":0.0001429,"INCLINATION":97.2846,"RA_OF_ASC_NODE":327.5959,"ARG_OF_PERICENTER":70.0395,"MEAN_ANOMALY":290.1027,"EPHEMERIS_TYPE":0,"CLASSIFICATION_TYPE":"U","NORAD_CAT_ID":68214,"ELEMENT_SET_NO":999,"REV_AT_EPOCH":374,"BSTAR":0.0011485983,"MEAN_MOTION_DOT":0.00226636,"MEAN_MOTION_DDOT":0}]
